{"type": "FeatureCollection", "features": [ {"type": "Feature", "properties": {"norad_id": 41019, "name": "GPS BIIF-11 (PRN 10)", "group": "gnss", "lat": -39.60776935898284, "lon": -108.86090899574295, "alt_km": 19892.68262592189, "timestamp": "2025-12-02T15:49:07.431277+00:00", "meta": {"OBJECT_NAME": "GPS BIIF-11 (PRN 10)", "OBJECT_ID": "2015-062A", "EPOCH": "2025-12-01T08:13:28.844544", "MEAN_MOTION": 2.00567003, "ECCENTRICITY": 0.01104814, "INCLINATION": 56.824, "RA_OF_ASC_NODE": 38.4433, "ARG_OF_PERICENTER": 229.6355, "MEAN_ANOMALY": 129.443, "EPHEMERIS_TYPE": 0, "CLASSIFICATION_TYPE": "U", "NORAD_CAT_ID": 41019, "ELEMENT_SET_NO": 999, "REV_AT_EPOCH": 7386, "BSTAR": 0, "MEAN_MOTION_DOT": -6.4e-07, "MEAN_MOTION_DDOT": 0}, "tle": {"line1": "1 41019U 15062A   25335.34269496 -.00000064  00000+0  00000+0 0  9999", "line2": "2 41019  56.8240  38.4433 0110481 229.6355 129.4430  2.00567003 73864"}}, "geometry": {"type": "Point", "coordinates": [-108.86090899574295, -39.60776935898284]}}, {"type": "Feature", "properties": {"norad_id": 41028, "name": "GSAT-15 (GAGAN/PRN 139)", "group": "gnss", "lat": 0.02042772192005419, "lon": 42.51154500232481, "alt_km": 35798.798819004056, "timestamp": "2025-12-02T15:49:07.431289+00:00", "meta": {"OBJECT_NAME": "GSAT-15 (GAGAN/PRN 139)", "OBJECT_ID": "2015-065A", "EPOCH": "2025-12-01T22:49:04.075104", "MEAN_MOTION": 1.00271786, "ECCENTRICITY": 0.00030134, "INCLINATION": 0.0128, "RA_OF_ASC_NODE": 16.724, "ARG_OF_PERICENTER": 213.1751, "MEAN_ANOMALY": 276.9237, "EPHEMERIS_TYPE": 0, "CLASSIFICATION_TYPE": "U", "NORAD_CAT_ID": 41028, "ELEMENT_SET_NO": 999, "REV_AT_EPOCH": 3682, "BSTAR": 0, "MEAN_MOTION_DOT": -2.37e-06, "MEAN_MOTION_DDOT": 0}, "tle": {"line1": "1 41028U 15065A   25335.95074161 -.00000237  00000+0  00000+0 0  9994", "line2": "2 41028   0.0128  16.7240 0003013 213.1751 276.9237  1.00271786 36822"}}, "geometry": {"type": "Point", "coordinates": [42.51154500232481, 0.02042772192005419]}}, {"type": "Feature", "properties": {"norad_id": 41174, "name": "GSAT0209 (GALILEO 12)", "group": "gnss", "lat": 53.69916364688226, "lon": 174.8480057864137, "alt_km": 23214.70357598022, "timestamp": "2025-12-02T15:49:07.431301+00:00", "meta": {"OBJECT_NAME": "GSAT0209 (GALILEO 12)", "OBJECT_ID": "2015-079A", "EPOCH": "2025-12-01T22:43:10.411392", "MEAN_MOTION": 1.70474306, "ECCENTRICITY": 0.00023523, "INCLINATION": 55.7062, "RA_OF_ASC_NODE": 106.6773, "ARG_OF_PERICENTER": 357.4206, "MEAN_ANOMALY": 2.5431, "EPHEMERIS_TYPE": 0, "CLASSIFICATION_TYPE": "U", "NORAD_CAT_ID": 41174, "ELEMENT_SET_NO": 999, "REV_AT_EPOCH": 6141, "BSTAR": 0, "MEAN_MOTION_DOT": 3.5e-07, "MEAN_MOTION_DDOT": 0}, "tle": {"line1": "1 41174U 15079A   25335.94664828  .00000035  00000+0  00000+0 0  9990", "line2": "2 41174  55.7062 106.6773 0002352 357.4206   2.5431  1.70474306 61412"}}, "geometry": {"type": "Point", "coordinates": [174.8480057864137, 53.69916364688226]}}, {"type": "Feature", "properties": {"norad_id": 41175, "name": "GSAT0208 (GALILEO 11)", "group": "gnss", "lat": -44.385730851456486, "lon": 64.74568437941606, "alt_km": 23225.348474491944, "timestamp": "2025-12-02T15:49:07.431314+00:00", "meta": {"OBJECT_NAME": "GSAT0208 (GALILEO 11)", "OBJECT_ID": "2015-079B", "EPOCH": "2025-11-30T09:46:10.644960", "MEAN_MOTION": 1.70474193, "ECCENTRICITY": 0.00018872, "INCLINATION": 55.7038, "RA_OF_ASC_NODE": 106.7167, "ARG_OF_PERICENTER": 11.7228, "MEAN_ANOMALY": 348.2564, "EPHEMERIS_TYPE": 0, "CLASSIFICATION_TYPE": "U", "NORAD_CAT_ID": 41175, "ELEMENT_SET_NO": 999, "REV_AT_EPOCH": 6180, "BSTAR": 0, "MEAN_MOTION_DOT": 4.8e-07, "MEAN_MOTION_DDOT": 0}, "tle": {"line1": "1 41175U 15079B   25334.40706765  .00000048  00000+0  00000+0 0  9992", "line2": "2 41175  55.7038 106.7167 0001887  11.7228 348.2564  1.70474193 61804"}}, "geometry": {"type": "Point", "coordinates": [64.74568437941606, -44.385730851456486]}}, {"type": "Feature", "properties": {"norad_id": 41241, "name": "IRNSS-1E", "group": "gnss", "lat": -0.9758960979854161, "lon": 61.06307788101172, "alt_km": 35876.60080889246, "timestamp": "2025-12-02T15:49:07.431326+00:00", "meta": {"OBJECT_NAME": "IRNSS-1E", "OBJECT_ID": "2016-003A", "EPOCH": "2025-12-01T16:03:27.224640", "MEAN_MOTION": 1.00278544, "ECCENTRICITY": 0.00219184, "INCLINATION": 32.8014, "RA_OF_ASC_NODE": 62.6145, "ARG_OF_PERICENTER": 186.5756, "MEAN_ANOMALY": 174.1351, "EPHEMERIS_TYPE": 0, "CLASSIFICATION_TYPE": "U", "NORAD_CAT_ID": 41241, "ELEMENT_SET_NO": 999, "REV_AT_EPOCH": 3610, "BSTAR": 0, "MEAN_MOTION_DOT": -2.97e-06, "MEAN_MOTION_DDOT": 0}, "tle": {"line1": "1 41241U 16003A   25335.66906510 -.00000297  00000+0  00000+0 0  9990", "line2": "2 41241  32.8014  62.6145 0021918 186.5756 174.1351  1.00278544 36108"}}, "geometry": {"type": "Point", "coordinates": [61.06307788101172, -0.9758960979854161]}}, {"type": "Feature", "properties": {"norad_id": 41328, "name": "GPS BIIF-12 (PRN 32)", "group": "gnss", "lat": 8.853134324500884, "lon": -88.92595428035082, "alt_km": 20112.859724169648, "timestamp": "2025-12-02T15:49:07.431337+00:00", "meta": {"OBJECT_NAME": "GPS BIIF-12 (PRN 32)", "OBJECT_ID": "2016-007A", "EPOCH": "2025-11-30T22:13:59.162880", "MEAN_MOTION": 2.00561199, "ECCENTRICITY": 0.00916001, "INCLINATION": 55.3993, "RA_OF_ASC_NODE": 97.326, "ARG_OF_PERICENTER": 243.286, "MEAN_ANOMALY": 115.7578, "EPHEMERIS_TYPE": 0, "CLASSIFICATION_TYPE": "U", "NORAD_CAT_ID": 41328, "ELEMENT_SET_NO": 999, "REV_AT_EPOCH": 7186, "BSTAR": 0, "MEAN_MOTION_DOT": 2.3e-07, "MEAN_MOTION_DDOT": 0}, "tle": {"line1": "1 41328U 16007A   25334.92637920  .00000023  00000+0  00000+0 0  9990", "line2": "2 41328  55.3993  97.3260 0091600 243.2860 115.7578  2.00561199 71861"}}, "geometry": {"type": "Point", "coordinates": [-88.92595428035082, 8.853134324500884]}}, {"type": "Feature", "properties": {"norad_id": 41330, "name": "COSMOS 2514 (751)", "group": "gnss", "lat": -4.136683910804246, "lon": -42.17972573079103, "alt_km": 19153.729822483223, "timestamp": "2025-12-02T15:49:07.431348+00:00", "meta": {"OBJECT_NAME": "COSMOS 2514 (751)", "OBJECT_ID": "2016-008A", "EPOCH": "2025-12-01T06:10:30.326016", "MEAN_MOTION": 2.13102518, "ECCENTRICITY": 0.0012529, "INCLINATION": 65.1403, "RA_OF_ASC_NODE": 319.7975, "ARG_OF_PERICENTER": 219.8281, "MEAN_ANOMALY": 140.091, "EPHEMERIS_TYPE": 0, "CLASSIFICATION_TYPE": "U", "NORAD_CAT_ID": 41330, "ELEMENT_SET_NO": 999, "REV_AT_EPOCH": 7640, "BSTAR": 0, "MEAN_MOTION_DOT": -2.7e-07, "MEAN_MOTION_DDOT": 0}, "tle": {"line1": "1 41330U 16008A   25335.25729544 -.00000027  00000+0  00000+0 0  9990", "line2": "2 41330  65.1403 319.7975 0012529 219.8281 140.0910  2.13102518 76408"}}, "geometry": {"type": "Point", "coordinates": [-42.17972573079103, -4.136683910804246]}}, {"type": "Feature", "properties": {"norad_id": 41384, "name": "IRNSS-1F", "group": "gnss", "lat": -4.199456537270603, "lon": -18.434144111970603, "alt_km": 35741.78217018396, "timestamp": "2025-12-02T15:49:07.431363+00:00", "meta": {"OBJECT_NAME": "IRNSS-1F", "OBJECT_ID": "2016-015A", "EPOCH": "2025-12-02T01:57:08.559648", "MEAN_MOTION": 1.00267041, "ECCENTRICITY": 0.00223876, "INCLINATION": 4.8536, "RA_OF_ASC_NODE": 101.5646, "ARG_OF_PERICENTER": 179.4031, "MEAN_ANOMALY": 211.926, "EPHEMERIS_TYPE": 0, "CLASSIFICATION_TYPE": "U", "NORAD_CAT_ID": 41384, "ELEMENT_SET_NO": 999, "REV_AT_EPOCH": 3569, "BSTAR": 0, "MEAN_MOTION_DOT": 1.79e-06, "MEAN_MOTION_DDOT": 0}, "tle": {"line1": "1 41384U 16015A   25336.08134907  .00000179  00000+0  00000+0 0  9999", "line2": "2 41384   4.8536 101.5646 0022387 179.4031 211.9260  1.00267041 35693"}}, "geometry": {"type": "Point", "coordinates": [-18.434144111970603, -4.199456537270603]}}, {"type": "Feature", "properties": {"norad_id": 41434, "name": "BEIDOU-2 IGSO-6 (C13)", "group": "gnss", "lat": 1.2303178609235483, "lon": 40.74383970955181, "alt_km": 35952.51015281324, "timestamp": "2025-12-02T15:49:07.431375+00:00", "meta": {"OBJECT_NAME": "BEIDOU-2 IGSO-6 (C13)", "OBJECT_ID": "2016-021A", "EPOCH": "2025-11-29T16:01:16.721760", "MEAN_MOTION": 1.00257137, "ECCENTRICITY": 0.00590915, "INCLINATION": 59.9454, "RA_OF_ASC_NODE": 40.0323, "ARG_OF_PERICENTER": 231.0312, "MEAN_ANOMALY": 130.2075, "EPHEMERIS_TYPE": 0, "CLASSIFICATION_TYPE": "U", "NORAD_CAT_ID": 41434, "ELEMENT_SET_NO": 999, "REV_AT_EPOCH": 3548, "BSTAR": 0, "MEAN_MOTION_DOT": -1.5e-06, "MEAN_MOTION_DDOT": 0}, "tle": {"line1": "1 41434U 16021A   25333.66755465 -.00000150  00000+0  00000+0 0  9991", "line2": "2 41434  59.9454  40.0323 0059091 231.0312 130.2075  1.00257137 35486"}}, "geometry": {"type": "Point", "coordinates": [40.74383970955181, 1.2303178609235483]}}, {"type": "Feature", "properties": {"norad_id": 41469, "name": "IRNSS-1G", "group": "gnss", "lat": -1.8793627749212745, "lon": 78.56417605691055, "alt_km": 35783.24748985333, "timestamp": "2025-12-02T15:49:07.431388+00:00", "meta": {"OBJECT_NAME": "IRNSS-1G", "OBJECT_ID": "2016-027A", "EPOCH": "2025-12-02T05:57:38.749824", "MEAN_MOTION": 1.00266666, "ECCENTRICITY": 0.0001419, "INCLINATION": 4.7109, "RA_OF_ASC_NODE": 102.359, "ARG_OF_PERICENTER": 16.3285, "MEAN_ANOMALY": 171.5721, "EPHEMERIS_TYPE": 0, "CLASSIFICATION_TYPE": "U", "NORAD_CAT_ID": 41469, "ELEMENT_SET_NO": 999, "REV_AT_EPOCH": 3520, "BSTAR": 0, "MEAN_MOTION_DOT": -3.14e-06, "MEAN_MOTION_DDOT": 0}, "tle": {"line1": "1 41469U 16027A   25336.24836516 -.00000314  00000+0  00000+0 0  9991", "line2": "2 41469   4.7109 102.3590 0001419  16.3285 171.5721  1.00266666 35204"}}, "geometry": {"type": "Point", "coordinates": [78.56417605691055, -1.8793627749212745]}}]}